    PK21N020  2021 11 13.2493  3.796591  0.452393  177.3369  221.7424   13.0628  20211229   9.5  4.0  P/2021 N2 (Fuls)                                         MPEC 2021-Y10
    CK21N030  2020 08 18.9633  5.707232  0.964627  304.6091  337.4942   26.7507  20211229   8.5  4.0  C/2021 N3 (PANSTARRS)                                    MPEC 2021-W31
    CK21O010  2021 08 13.9277  0.786946  1.000163   74.4481   41.6075   27.5737  20211229  10.5  4.0  C/2021 O1 (Nishimura)                                    MPEC 2021-R75
    CK21O030  2022 04 21.0462  0.287323  1.000125  299.9888  189.0210   56.7860  20211229  10.5  4.0  C/2021 O3 (PANSTARRS)                                    MPEC 2021-Y10
    CK21P010  2022 06  1.9036  4.374448  0.999428   40.3900  359.6735   51.6298  20211229  11.0  4.0  C/2021 P1 (PANSTARRS)                                    MPEC 2021-W31
    CK21P020  2023 01 21.8357  5.071300  0.998360   76.5074   32.0002  150.0247  20211229   9.0  4.0  C/2021 P2 (PANSTARRS)                                    MPEC 2021-W31
    PK21P030  2021 05 30.7941  2.916018  0.339961  334.1845  358.2384   27.1604  20211229  14.0  4.0  P/2021 P3 (PANSTARRS)                                    MPEC 2021-W31
    CK21P040  2022 07 30.3839  1.080475  0.996536  175.8229  348.0960   56.3115  20211229   9.5  4.0  C/2021 P4 (ATLAS)                                        MPEC 2021-Y10
    CK21Q030  2022 01 26.0262  5.204770  0.930303  114.0842  307.9022   77.7772  20211229   8.0  4.0  C/2021 Q3 (ATLAS)                                        MPEC 2021-Y10
    CK21Q040  2023 06  9.1449  7.566795  1.003362  146.9078  183.3325   71.4737  20211229   6.0  4.0  C/2021 Q4 (Fuls)                                         MPEC 2021-UA9
    PK21Q050  2021 08 30.4333  1.234537  0.624278  180.8955  239.7736   10.7341  20211229  15.0  4.0  P/2021 Q5 (ATLAS)                                        MPEC 2021-WD8
    CK21Q060  2024 03 21.6560  8.714357  0.998987  140.8224  133.5401  161.8470  20211229   6.0  4.0  C/2021 Q6 (PANSTARRS)                                    MPEC 2021-Y10
    PK21R010  2021 12 17.5644  4.885768  0.419722  220.3120  143.4084    5.5213  20211229  11.0  4.0  P/2021 R1 (PANSTARRS)                                    MPEC 2021-W31
    CK21R020  2021 12 25.5561  7.311055  0.996274   32.3330   16.2791  134.4640  20211229   7.5  4.0  C/2021 R2 (PANSTARRS)                                    MPEC 2021-W31
    PK21R030  2021 05 26.8674  2.524996  0.331690    2.9471  304.2393   19.9284  20211229  16.0  4.0  P/2021 R3 (PANSTARRS)                                    MPEC 2021-W31
    PK21R040  2021 10 13.9336  2.326005  0.585980   56.6300  321.2559   21.0400  20211229  16.0  4.0  P/2021 R4 (Wierzchos)                                    MPEC 2021-W31
    PK21R050  2022 01 12.0355  3.322743  0.307217  167.3475  219.9604    7.8534  20211229  12.0  4.0  P/2021 R5 (Rankin)                                       MPEC 2021-Y10
    PK21R060  2021 10 31.8812  2.552132  0.593163  220.7266  176.1150   34.9269  20211229  14.5  4.0  P/2021 R6 (Groeller)                                     MPEC 2021-W31
    CK21R070  2021 04 14.8444  5.641260  0.995423  140.0309  170.1440  158.8554  20211229  10.5  4.0  C/2021 R7 (PANSTARRS)                                    MPEC 2021-W31
    PK21R080  2021 10  7.4778  2.130970  0.293787  190.7793  167.0276    2.2033  20211229  18.5  4.0  P/2021 R8 (Sheppard)                                     MPEC 2021-Y10
    CK21S010  2022 03  1.1983  6.118818  1.000731  148.2140  299.8709   52.0916  20211229   7.0  4.0  C/2021 S1 (ATLAS)                                        MPEC 2021-Y10
    CK21S030  2024 02 14.8631  1.318313  0.999654    6.9169  215.6494   58.5470  20211229   5.5  4.0  C/2021 S3 (PANSTARRS)                                    MPEC 2021-Y10
    CK21S040  2024 01  1.0813  6.691619  0.958954   72.7539    5.4988   17.4814  20211229   6.5  4.0  C/2021 S4 (Tsuchinshan)                                  MPEC 2021-Y10
    CK21T010  2021 10 14.0891  3.057777  0.996974   51.5028   56.8125  140.3485  20211229  12.5  4.0  C/2021 T1 (Lemmon)                                       MPEC 2021-Y10
    CK21T020  2022 06  7.8981  1.247619  1.000118  263.5971  223.2317  117.5256  20211229  12.0  4.0  C/2021 T2 (Fuls)                                         MPEC 2021-Y10
    CK21T040  2023 07 31.5516  1.482074  0.999830  329.7814  257.7977  160.7566  20211229   7.5  4.0  C/2021 T4 (Lemmon)                                       MPEC 2021-Y10
    PK21U010  2021 09 30.9820  2.445003  0.712749  145.0465  246.7895   30.5606  20211229  14.5  4.0  P/2021 U1 (Wierzchos)                                    MPEC 2021-Y10
    PK21U030  2021 10 24.8666  1.886866  0.550019  335.2132   75.1128   69.9655  20211229  15.5  4.0  P/2021 U3 (Attard-Maury)                                 MPEC 2021-Y10
    CK21U040  2021 12 21.9443  1.787429  0.960153  237.2790  241.8036  152.8775  20211229  17.0  4.0  C/2021 U4 (Leonard)                                      MPEC 2021-W31
    CK21U050  2022 01 26.4109  2.365454  0.992466  321.3628  182.8052   39.0438  20211229  13.0  4.0  C/2021 U5 (Catalina)                                     MPEC 2021-Y10
    CK21V010  2022 04 30.3706  3.013480  0.995445  195.1057  207.6528   71.4422  20211229  13.0  4.0  C/2021 V1 (Rankin)                                       MPEC 2021-Y10
    PK21V020  2023 01 21.5906  3.497009  0.612903  259.8320  232.2925   12.6956  20211229  10.0  4.0  P/2021 V2 (Fuls)                                         MPEC 2021-Y10
    PK21V030  2022 08 18.3622  3.400303  0.254040  206.6987  245.8688    3.6897  20211229  13.0  4.0  P/2021 V3 (PANSTARRS)                                    MPEC 2021-Y10
    AK21X010  2023 05 27.4692  3.226275  0.999089  334.7912   10.6199  140.1328  20211229  11.5  2.0  A/2021 X1                                                MPEC 2021-Y10
0001P         1986 02 12.5610  0.602551  0.966286  111.8614   58.9318  162.2292  20211229   4.0  6.0  1P/Halley                                                 98, 1083
0002P         2020 06 28.2187  0.333374  0.849732  186.7019  334.5039   11.7632  20211229  11.5  6.0  2P/Encke                                                 MPEC 2021-TD0
0004P         2021 09  8.8411  1.618892  0.576642  207.0027  192.9309    8.0083  20211229   8.0  6.0  4P/Faye                                                  MPEC 2021-Y10
0006P         2021 09 17.7652  1.354560  0.612754  178.0913  138.9351   19.5122  20211229   7.5 16.0  6P/d'Arrest                                              MPEC 2021-Y10
0007P         2021 05 27.0997  1.233960  0.638500  172.5881   93.3624   22.3623  20211229  10.0  6.0  7P/Pons-Winnecke                                         MPEC 2021-Y10
0008P         2021 08 27.7359  1.025995  0.820225  207.4883  270.2020   54.9111  20211229   8.0  8.0  8P/Tuttle                                                MPEC 2021-Y10
0009P         2022 03  4.9492  1.544234  0.509160  179.3487   68.7143   10.4699  20211229   5.5 10.0  9P/Tempel                                                MPEC 2021-Y10
0010P         2021 03 24.2474  1.412590  0.538482  195.4986  117.8094   12.0393  20211229   5.0 10.0  10P/Tempel                                               MPEC 2021-Y10
0011P         2020 11 26.3032  1.388456  0.577177  167.9626  238.8978   14.4216  20211229  17.0  4.0  11P/Tempel-Swift-LINEAR                                  MPEC 2021-UA9
0012P         2024 04 20.6612  0.781749  0.954424  198.9901  255.7907   74.1486  20211229   5.0  6.0  12P/Pons-Brooks                                           27,  604
0013P         2024 07  1.2415  1.175059  0.929820   64.4162   85.9296   44.6192  20211229   5.0  6.0  13P/Olbers                                                27,  604
0014P         2017 12  3.2829  2.737795  0.357095  159.0403  202.0468   27.9185  20211229   5.5 12.0  14P/Wolf                                                 MPEC 2021-F20
0015P         2021 07 13.4775  0.992075  0.717047  347.8326   13.7125    6.7977  20211229  12.0  4.0  15P/Finlay                                               MPEC 2021-Y10
0016P         2021 04 18.2940  1.878331  0.486340  245.1950  138.8705    3.0117  20211229   7.5 10.0  16P/Brooks                                               MPEC 2021-W31
0017P         2021 02 19.8733  2.081040  0.427634   24.4928  326.6212   19.0320  20211229  10.0  6.0  17P/Holmes                                               MPEC 2021-Y10
0019P         2022 02  1.8262  1.306271  0.637650  351.9174   74.2472   29.3046  20211229   4.5 10.0  19P/Borrelly                                             MPEC 2021-Y10
0021P         2025 03 25.1459  1.009852  0.711105  172.8668  195.3458   32.0466  20211229  11.4  4.0  21P/Giacobini-Zinner                                     MPEC 2021-F20
0022P         2022 03 18.1271  1.552419  0.548747  163.0183  120.8341    4.7420  20211229   3.0 10.4  22P/Kopff                                                MPEC 2021-S45
0023P         1989 08  5.0012  0.481721  0.971576  128.8666  312.3460   19.1519  20211229  10.0  6.0  23P/Brorsen-Metcalf                                      MPC 14747
0024P         2026 01  9.7414  1.183604  0.708015   58.3301   78.5027   11.5207  20211229   6.5 14.0  24P/Schaumasse                                           MPC110085
0026P         2023 12 25.6106  1.084369  0.640292    2.1690  211.5391   22.4322  20211229  12.0 16.0  26P/Grigg-Skjellerup                                     MPEC 2021-WD8
0027P         2011 07 23.2011  0.748855  0.918459  195.9167  250.6222   29.2496  20211229  12.0  8.0  27P/Crommelin                                            MPC 78188
0028P         2021 03 11.8788  1.578534  0.773729  347.4194  346.3321   14.3121  20211229   8.5  6.0  28P/Neujmin                                              MPEC 2021-Y10
